{
    "links": {
        "self": "http://www.neowsapp.com/rest/v1/neo/3843841?api_key=iIulBulltgU6a56xZRHN4H3l9WmuAYTsLGpBGhQ2"
    },
    "id": "3843841",
    "neo_reference_id": "3843841",
    "name": "(2019 RK3)",
    "designation": "2019 RK3",
    "nasa_jpl_url": "http://ssd.jpl.nasa.gov/sbdb.cgi?sstr=3843841",
    "absolute_magnitude_h": 25.9,
    "estimated_diameter": {
        "kilometers": {
            "estimated_diameter_min": 0.0175612318,
            "estimated_diameter_max": 0.0392681082
        },
        "meters": {
            "estimated_diameter_min": 17.561231848,
            "estimated_diameter_max": 39.2681081809
        },
        "miles": {
            "estimated_diameter_min": 0.0109120402,
            "estimated_diameter_max": 0.0244000636
        },
        "feet": {
            "estimated_diameter_min": 57.6155918963,
            "estimated_diameter_max": 128.8323800441
        }
    },
    "is_potentially_hazardous_asteroid": false,
    "close_approach_data": [
        {
            "close_approach_date": "2019-09-02",
            "close_approach_date_full": "2019-Sep-02 22:45",
            "epoch_date_close_approach": 1567464300000,
            "relative_velocity": {
                "kilometers_per_second": "9.4690043241",
                "kilometers_per_hour": "34088.4155668505",
                "miles_per_hour": "21181.2157726355"
            },
            "miss_distance": {
                "astronomical": "0.0535365238",
                "lunar": "20.8257077582",
                "kilometers": "8008949.927684306",
                "miles": "4976530.7202671828"
            },
            "orbiting_body": "Earth"
        }
    ],
    "orbital_data": {
        "orbit_id": "1",
        "orbit_determination_date": "2019-09-11 07:42:02",
        "first_observation_date": "2019-09-07",
        "last_observation_date": "2019-09-10",
        "data_arc_in_days": 3,
        "observations_used": 16,
        "orbit_uncertainty": "8",
        "minimum_orbit_intersection": ".0502821",
        "jupiter_tisserand_invariant": "4.574",
        "epoch_osculation": "2458734.5",
        "eccentricity": ".3129678306054384",
        "semi_major_axis": "1.44417666170651",
        "inclination": "13.98512276666469",
        "ascending_node_longitude": "167.9436564328047",
        "orbital_period": "633.9119086109748",
        "perihelion_distance": ".9921958248812196",
        "perihelion_argument": "133.6769006935407",
        "aphelion_distance": "1.896157498531801",
        "perihelion_time": "2458693.903440207250",
        "mean_anomaly": "23.05487769966935",
        "mean_motion": ".5679022512589021",
        "equinox": "J2000",
        "orbit_class": {
            "orbit_class_type": "APO",
            "orbit_class_description": "Near-Earth asteroid orbits which cross the Earth’s orbit similar to that of 1862 Apollo",
            "orbit_class_range": "a (semi-major axis) > 1.0 AU; q (perihelion) < 1.017 AU"
        }
    },
    "is_sentry_object": false
}